{
    "links": {
        "self": "http://www.neowsapp.com/rest/v1/neo/54049872?api_key=iIulBulltgU6a56xZRHN4H3l9WmuAYTsLGpBGhQ2"
    },
    "id": "54049872",
    "neo_reference_id": "54049872",
    "name": "(2020 OQ6)",
    "designation": "2020 OQ6",
    "nasa_jpl_url": "http://ssd.jpl.nasa.gov/sbdb.cgi?sstr=54049872",
    "absolute_magnitude_h": 26.054,
    "estimated_diameter": {
        "kilometers": {
            "estimated_diameter_min": 0.0163589331,
            "estimated_diameter_max": 0.0365796865
        },
        "meters": {
            "estimated_diameter_min": 16.3589331093,
            "estimated_diameter_max": 36.5796864718
        },
        "miles": {
            "estimated_diameter_min": 0.0101649666,
            "estimated_diameter_max": 0.0227295564
        },
        "feet": {
            "estimated_diameter_min": 53.6710421024,
            "estimated_diameter_max": 120.0120985642
        }
    },
    "is_potentially_hazardous_asteroid": false,
    "close_approach_data": [
        {
            "close_approach_date": "2013-12-27",
            "close_approach_date_full": "2013-Dec-27 18:31",
            "epoch_date_close_approach": 1388169060000,
            "relative_velocity": {
                "kilometers_per_second": "34.4587910889",
                "kilometers_per_hour": "124051.6479198694",
                "miles_per_hour": "77080.8697866544"
            },
            "miss_distance": {
                "astronomical": "0.3383077708",
                "lunar": "131.6017228412",
                "kilometers": "50610121.916128196",
                "miles": "31447671.5107772648"
            },
            "orbiting_body": "Earth"
        },
        {
            "close_approach_date": "2017-04-06",
            "close_approach_date_full": "2017-Apr-06 07:06",
            "epoch_date_close_approach": 1491462360000,
            "relative_velocity": {
                "kilometers_per_second": "25.2199448574",
                "kilometers_per_hour": "90791.8014865478",
                "miles_per_hour": "56414.4946514608"
            },
            "miss_distance": {
                "astronomical": "0.4893274194",
                "lunar": "190.3483661466",
                "kilometers": "73202339.674836678",
                "miles": "45485824.6682270364"
            },
            "orbiting_body": "Earth"
        },
        {
            "close_approach_date": "2020-07-31",
            "close_approach_date_full": "2020-Jul-31 02:49",
            "epoch_date_close_approach": 1596163740000,
            "relative_velocity": {
                "kilometers_per_second": "24.0883832273",
                "kilometers_per_hour": "86718.1796184078",
                "miles_per_hour": "53883.3044412268"
            },
            "miss_distance": {
                "astronomical": "0.0027932059",
                "lunar": "1.0865570951",
                "kilometers": "417857.653111433",
                "miles": "259644.7057584554"
            },
            "orbiting_body": "Earth"
        },
        {
            "close_approach_date": "2020-07-31",
            "close_approach_date_full": "2020-Jul-31 06:30",
            "epoch_date_close_approach": 1596177000000,
            "relative_velocity": {
                "kilometers_per_second": "23.4439173433",
                "kilometers_per_hour": "84398.1024357245",
                "miles_per_hour": "52441.6987051311"
            },
            "miss_distance": {
                "astronomical": "0.0043010224",
                "lunar": "1.6730977136",
                "kilometers": "643423.789862288",
                "miles": "399805.0038160544"
            },
            "orbiting_body": "Moon"
        }
    ],
    "orbital_data": {
        "orbit_id": "3",
        "orbit_determination_date": "2020-08-19 07:54:49",
        "first_observation_date": "2020-07-31",
        "last_observation_date": "2020-08-01",
        "data_arc_in_days": 1,
        "observations_used": 85,
        "orbit_uncertainty": "7",
        "minimum_orbit_intersection": ".00102036",
        "jupiter_tisserand_invariant": "3.237",
        "epoch_osculation": "2459000.5",
        "eccentricity": ".7650143267740384",
        "semi_major_axis": "2.160068542921996",
        "inclination": "3.549773404196678",
        "ascending_node_longitude": "307.2442817678611",
        "orbital_period": "1159.577354431465",
        "perihelion_distance": ".5075851607727473",
        "perihelion_argument": "262.1621865077471",
        "aphelion_distance": "3.812551925071245",
        "perihelion_time": "2459014.792275122215",
        "mean_anomaly": "355.5628496673083",
        "mean_motion": ".3104579428221986",
        "equinox": "J2000",
        "orbit_class": {
            "orbit_class_type": "APO",
            "orbit_class_description": "Near-Earth asteroid orbits which cross the Earth’s orbit similar to that of 1862 Apollo",
            "orbit_class_range": "a (semi-major axis) > 1.0 AU; q (perihelion) < 1.017 AU"
        }
    },
    "is_sentry_object": false
}